O3B FM5                 
1 39188U 13031A   22004.74219102 -.00000022  00000+0  00000+0 0  9994
2 39188   0.0323 356.2417 0002602 300.3404  63.3877  5.00116164155774
O3B FM4                 
1 39189U 13031B   22004.60800447 -.00000022  00000+0  00000+0 0  9998
2 39189   0.0547  18.4496 0003362 229.7459 111.7652  5.00116199155783
O3B FM2                 
1 39190U 13031C   22004.66049237 -.00000022  00000+0  00000+0 0  9998
2 39190   0.0589  21.5139 0005941 201.9708 136.4650  5.00115892155831
O3B PFM                 
1 39191U 13031D   22004.68730809 -.00000022  00000+0  00000+0 0  9993
2 39191   0.0397   4.5086 0002586 281.7805  73.6789  5.00115726155636
O3B FM3                 
1 40079U 14038A   22004.79530871 -.00000022  00000+0  00000+0 0  9997
2 40079   0.0477  15.0338 0003906 306.6110  38.3238  5.00115315131772
O3B FM7                 
1 40080U 14038B   22004.74158285 -.00000022  00000+0  00000+0 0  9999
2 40080   0.0487  20.2039 0002590 222.6153 117.1508  5.00115886136610
O3B FM6                 
1 40081U 14038C   22004.56790991 -.00000022  00000+0  00000+0 0  9996
2 40081   0.0487  14.7678 0002661 269.4341  75.7651  5.00115450136553
O3B FM8                 
1 40082U 14038D   22004.62189973 -.00000022  00000+0  00000+0 0  9996
2 40082   0.0518  15.4516 0002822 269.3819  75.1317  5.00115412136670
O3B FM10                
1 40348U 14083A   22004.84785150 -.00000022  00000+0  00000+0 0  9994
2 40348   0.0448   4.8498 0002662 279.8307  75.2864  5.00115872128633
O3B FM11                
1 40349U 14083B   22004.86118145 -.00000022  00000+0  00000+0 0  9991
2 40349   0.0410   8.6334 0002084 264.6814  86.6578  5.00115166128642
O3B FM12                
1 40350U 14083C   22004.72877389 -.00000022  00000+0  00000+0 0  9990
2 40350   0.0420   8.9707 0002609 269.8670  81.1292  5.00115745128648
O3B FM9                 
1 40351U 14083D   22004.51546960 -.00000022  00000+0  00000+0 0  9996
2 40351   0.0399   9.2606 0002592 274.2279  76.4792  5.00114955128792
DIAMOND RED             
1 42783U 17036U   22005.11129630  .00002481  00000+0  10230-3 0  9996
2 42783  97.2240  51.6379 0011187 180.4675 179.6554 15.24924591252031
DIAMOND GREEN           
1 42785U 17036W   22004.78261867  .00002907  00000+0  11934-3 0  9994
2 42785  97.2243  51.3764 0011050 182.1092 178.0102 15.24936169252050
DIAMOND BLUE            
1 42786U 17036X   22005.10978106  .00002405  00000+0  99216-4 0  9996
2 42786  97.2243  51.6843 0010993 181.4643 178.6565 15.24932672252022
LEO VANTAGE 1           
1 43113U 18004C   22004.77855578  .00000007  00000+0  19820-4 0  9995
2 43113  99.2678  68.3413 0270799 320.0297  38.1220 14.25550494200521
O3B FM15                
1 43231U 18024A   22004.78164596 -.00000022  00000+0  00000+0 0  9995
2 43231   0.0474   1.9212 0002691 284.3134  73.7323  5.00115740 69764
O3B FM16                
1 43232U 18024B   22004.63508330 -.00000022  00000+0  00000+0 0  9998
2 43232   0.0501 358.1456 0002676 287.1313  74.6900  5.00115625 69679
O3B FM14                
1 43233U 18024C   22004.67467162 -.00000022  00000+0  00000+0 0  9990
2 43233   0.0515 357.4652 0002623 284.5311  77.9707  5.00116137 69687
O3B FM13                
1 43234U 18024D   22003.92647920 -.00000021  00000+0  00000+0 0  9999
2 43234   0.0232   1.9781 0006017 122.5596 235.5162  4.99514979 69764
O3B FM20                
1 44112U 19020A   22003.10208302 -.00000019  00000+0  00000+0 0  9996
2 44112   0.0454   5.2485 0002327 279.3017  75.4216  5.00115238 50290
O3B FM19                
1 44113U 19020B   21349.49958875 -.00000020  00000+0  00000+0 0  9990
2 44113   0.0276 317.8520 0002148 336.6128  65.5148  5.00115365 49356
O3B FM17                
1 44114U 19020C   22004.80854374 -.00000022  00000+0  00000+0 0  9996
2 44114   0.0650   6.8333 0002658 280.9812  72.1529  5.00115266 50255
O3B FM18                
1 44115U 19020D   22004.75519860 -.00000022  00000+0  00000+0 0  9999
2 44115   0.0449   5.1822 0002826 280.7908  73.9923  5.00115585 50383
SALSAT                  
1 46495U 20068K   22004.90610334  .00001853  00000+0  13908-3 0  9998
2 46495  97.7108 306.4289 0017993 109.3439 250.9733 15.03767920 69602
